[{"OBJECT_NAME":"ONEWEB-0345","OBJECT_ID":"2021-083AB","EPOCH":"2026-03-09T18:37:08.825376","MEAN_MOTION":13.13469006,"ECCENTRICITY":0.00020399,"INCLINATION":87.9036,"RA_OF_ASC_NODE":339.9955,"ARG_OF_PERICENTER":72.684,"MEAN_ANOMALY":287.4512,"EPHEMERIS_TYPE":0,"CLASSIFICATION_TYPE":"U","NORAD_CAT_ID":49211,"ELEMENT_SET_NO":999,"REV_AT_EPOCH":21785,"BSTAR":-0.00076550277,"MEAN_MOTION_DOT":-2.67e-6,"MEAN_MOTION_DDOT":0},{"OBJECT_NAME":"SL-14 DEB","OBJECT_ID":"1991-056DM","EPOCH":"2026-03-09T07:52:58.444608","MEAN_MOTION":13.24540157,"ECCENTRICITY":0.00601258,"INCLINATION":82.6024,"RA_OF_ASC_NODE":199.4993,"ARG_OF_PERICENTER":278.9936,"MEAN_ANOMALY":80.4389,"EPHEMERIS_TYPE":0,"CLASSIFICATION_TYPE":"U","NORAD_CAT_ID":47087,"ELEMENT_SET_NO":999,"REV_AT_EPOCH":25836,"BSTAR":0.00042908686,"MEAN_MOTION_DOT":1.98e-6,"MEAN_MOTION_DDOT":0}]
